[{"OBJECT_NAME":"HONGHU 2","OBJECT_ID":"2023-193C","EPOCH":"2026-03-09T23:21:07.139520","MEAN_MOTION":15.21543878,"ECCENTRICITY":0.00399876,"INCLINATION":97.2779,"RA_OF_ASC_NODE":62.3901,"ARG_OF_PERICENTER":264.1736,"MEAN_ANOMALY":95.4941,"EPHEMERIS_TYPE":0,"CLASSIFICATION_TYPE":"U","NORAD_CAT_ID":58555,"ELEMENT_SET_NO":999,"REV_AT_EPOCH":8691,"BSTAR":0.0061775359,"MEAN_MOTION_DOT":0.00144707,"MEAN_MOTION_DDOT":0},{"OBJECT_NAME":"STARLINK-33581","OBJECT_ID":"2025-015AC","EPOCH":"2026-03-09T23:42:05.077728","MEAN_MOTION":15.3020351,"ECCENTRICITY":0.00011701,"INCLINATION":53.1576,"RA_OF_ASC_NODE":321.2896,"ARG_OF_PERICENTER":82.9517,"MEAN_ANOMALY":277.1616,"EPHEMERIS_TYPE":0,"CLASSIFICATION_TYPE":"U","NORAD_CAT_ID":62784,"ELEMENT_SET_NO":999,"REV_AT_EPOCH":6452,"BSTAR":0.00061300222,"MEAN_MOTION_DOT":0.00017842,"MEAN_MOTION_DDOT":0}]
